YAHSAT 1B               
1 38245U 12016A   23120.48659310  .00000131  00000+0  00000+0 0  9999
2 38245   0.0109 218.8050 0002785 194.1732  27.9832  1.00271854 34126
AEHF-2 (USA 235)        
1 38254U 12019A   23120.45835170 -.00000153  00000+0  00000+0 0  9994
2 38254   4.0304  62.0733 0002658 328.0055 258.8407  1.00273496 39389
JCSAT-13                
1 38331U 12023A   23119.85667088 -.00000354  00000+0  00000+0 0  9991
2 38331   0.0176 225.4312 0002933 209.7501 214.7685  1.00270693 40054
VINASAT-2               
1 38332U 12023B   23120.50341590 -.00000324  00000+0  00000+0 0  9990
2 38332   0.0170  83.6383 0002661 333.4466 114.1860  1.00269092 35192
NIMIQ 6                 
1 38342U 12026A   23120.53068396 -.00000169  00000+0  00000+0 0  9994
2 38342   0.0541  80.4370 0002672 308.9282 288.8001  1.00271039 38958
CHINASAT 2A (ZX 2A)     
1 38352U 12028A   23120.49670421 -.00000289  00000+0  00000+0 0  9993
2 38352   0.0291 338.1917 0001933  36.6550 120.4155  1.00271800 39917
INTELSAT 19 (IS-19)     
1 38356U 12030A   23120.25496939 -.00000053  00000+0  00000+0 0  9993
2 38356   0.0102  73.9838 0003067 324.6367  77.1036  1.00271089 38974
ECHOSTAR 17             
1 38551U 12035A   23120.48796444 -.00000070  00000+0  00000+0 0  9993
2 38551   0.0156 212.7843 0001738 211.4078 222.5467  1.00270731 39590
METEOSAT-10 (MSG-3)     
1 38552U 12035B   23120.33370608 -.00000002  00000+0  00000+0 0  9993
2 38552   2.0792  54.4364 0000377 294.4889 349.0099  1.00275739 39383
SES-5                   
1 38652U 12036A   23120.25118825  .00000038  00000+0  00000+0 0  9995
2 38652   0.0499 295.5828 0002055 100.2389 277.5213  1.00271816 33012
TIANLIAN 1-03           
1 38730U 12040A   23118.65054934  .00000127  00000+0  00000+0 0  9997
2 38730   2.8162  87.4825 0008313 341.7686  41.7368  1.00269140 39505
INTELSAT 20 (IS-20)     
1 38740U 12043A   23120.08243661 -.00000021  00000+0  00000+0 0  9992
2 38740   0.0214 150.4935 0001787  34.1435 131.3021  1.00271295 39270
HYLAS 2                 
1 38741U 12043B   23120.55500294  .00000159  00000+0  00000+0 0  9994
2 38741   0.0423  86.6859 0001795 305.7996  56.5783  1.00272032 39291
INTELSAT 21 (IS-21)     
1 38749U 12045A   23120.53730848 -.00000280  00000+0  00000+0 0  9998
2 38749   0.0182 280.2009 0002166 113.8755 319.5816  1.00272043 39059
ASTRA 2F                
1 38778U 12051A   23120.55447997  .00000155  00000+0  00000+0 0  9999
2 38778   0.0402 232.4565 0000691  37.1999 176.3841  1.00272960 29651
GSAT-10                 
1 38779U 12051B   23119.88313309 -.00000163  00000+0  00000+0 0  9993
2 38779   0.0363 260.7978 0002113  69.1664 288.5588  1.00274261 38644
INTELSAT 23 (IS-23)     
1 38867U 12057A   23120.46663237 -.00000280  00000+0  00000+0 0  9991
2 38867   0.0133 239.2081 0001635 147.1440 306.7896  1.00269747 38479
BEIDOU-2 G6             
1 38953U 12059A   23120.49391494 -.00000170  00000+0  00000+0 0  9993
2 38953   1.7139  82.3721 0011313 310.2001  87.5080  1.00272857 38449
LUCH-5B                 
1 38977U 12061A   23120.12966016 -.00000127  00000+0  00000+0 0  9992
2 38977   7.9826  60.1627 0003128  35.0559 152.9660  1.00272817 38706
YAMAL 300K              
1 38978U 12061B   23120.50813274  .00000076  00000+0  00000+0 0  9994
2 38978   0.0117 240.3804 0001116  20.2412 323.4368  1.00272250 38163
STAR ONE C3             
1 38991U 12062A   23120.53390906 -.00000244  00000+0  00000+0 0  9993
2 38991   0.0199 104.7226 0002154 305.9955 284.6987  1.00267349 38288
EUTELSAT 21B            
1 38992U 12062B   23120.55317248  .00000135  00000+0  00000+0 0  9992
2 38992   0.0730  20.7600 0002651  22.2339  35.9787  1.00273816 38371
ECHOSTAR 16             
1 39008U 12065A   23120.53661117 -.00000277  00000+0  00000+0 0  9997
2 39008   0.0131 224.2816 0002104 194.1286 291.4829  1.00269591 38155
CHINASAT 12 (ZX 12)     
1 39017U 12067A   23120.42287565 -.00000203  00000+0  00000+0 0  9997
2 39017   0.0262 146.1745 0002381 234.8307  76.8375  1.00271623 38246
EUTELSAT 70B            
1 39020U 12069A   23120.49121284 -.00000039  00000+0  00000+0 0  9992
2 39020   0.0715  30.1387 0000632 159.3517 276.0015  1.00271372 38042
YAMAL 402               
1 39022U 12070A   23120.66485331  .00000091  00000+0  00000+0 0  9998
2 39022   0.0049 251.4994 0003786 137.7207 123.3676  1.00270783 38137
SKYNET 5D               
1 39034U 12075A   23120.58660439  .00000104  00000+0  00000+0 0  9996
2 39034   0.0716  11.6039 0003391  26.8494  83.7383  1.00272677 37693
MEXSAT 3                
1 39035U 12075B   23120.52597706 -.00000020  00000+0  00000+0 0  9995
2 39035   0.0238  92.3861 0002103 300.2501 260.1195  1.00270040 37717
TDRS 11                 
1 39070U 13004A   23120.51412264  .00000080  00000+0  00000+0 0  9996
2 39070   2.7278 356.4158 0006557  54.2425 178.2715  1.00276025 35220
AMAZONAS 3              
1 39078U 13006A   23120.46343961 -.00000278  00000+0  00000+0 0  9997
2 39078   0.0277 159.9312 0001504 259.6486 264.4059  1.00271540 33438
AZERSPACE 1             
1 39079U 13006B   23120.48633161  .00000138  00000+0  00000+0 0  9998
2 39079   0.0187 106.9407 0002200 323.5738   8.7104  1.00270810 37333
SBIRS GEO-2 (USA 241)   
1 39120U 13011A   23120.46959597 -.00000251  00000+0  00000+0 0  9990
2 39120   2.2988  36.3368 0002054 359.4045 313.4598  1.00271624 37068
EUTELSAT 117 WEST A     
1 39122U 13012A   23120.52554125 -.00000008  00000+0  00000+0 0  9998
2 39122   0.0177 346.6732 0002831  47.0352 256.8844  1.00272249 36968
ANIK G1                 
1 39127U 13014A   23120.48796405 -.00000069  00000+0  00000+0 0  9996
2 39127   0.0510  83.6102 0001725 269.5445 293.3668  1.00272197 36780
CHINASAT 11 (ZX 11)     
1 39157U 13020A   23119.79059744 -.00000288  00000+0  00000+0 0  9999
2 39157   0.0221 254.2166 0001802 100.8725 244.9026  1.00274310 36679
EUTELSAT 7B             
1 39163U 13022A   23120.55020889  .00000053  00000+0  00000+0 0  9991
2 39163   0.0734  21.9933 0005594 357.3135  43.9907  1.00271851 36494
WGS F5 (USA 243)        
1 39168U 13024A   23120.40146455 -.00000280  00000+0  00000+0 0  9993
2 39168   0.0098 252.2428 0000522  61.4982 356.3572  1.00272400 35702
SES-6                   
1 39172U 13026A   23120.46907299 -.00000256  00000+0  00000+0 0  9990
2 39172   0.0315 302.9254 0002075  95.5398 308.0546  1.00271952 36250
IRNSS-1A                
1 39199U 13034A   23120.46160372  .00000106  00000+0  00000+0 0  9994
2 39199  33.1423  80.5831 0017545 186.2832 172.5684  1.00278765 35890
MUOS-2                  
1 39206U 13036A   23120.59146586  .00000071  00000+0  00000+0 0  9991
2 39206   3.0176  32.5192 0051053 179.0765  42.5943  1.00268849 35834
ALPHASAT                
1 39215U 13038A   23120.24007670  .00000139  00000+0  00000+0 0  9990
2 39215   2.8226  11.0555 0002081  53.3546 264.8024  1.00274291 32542
INSAT-3D                
1 39216U 13038B   23120.58180500 -.00000151  00000+0  00000+0 0  9997
2 39216   0.0591  86.0623 0001440 304.2304 119.4918  1.00272270 35617
WGS F6 (USA 244)        
1 39222U 13041A   23120.50112685  .00000094  00000+0  00000+0 0  9994
2 39222   0.0136 243.5565 0000034  46.7458 333.0877  1.00269008 34588
ES'HAIL 1               
1 39233U 13044A   23120.55386979  .00000148  00000+0  00000+0 0  9993
2 39233   0.0558  18.5096 0002021  15.1632  49.4392  1.00271097 35165
GSAT-7                  
1 39234U 13044B   23120.57966050 -.00000073  00000+0  00000+0 0  9998
2 39234   0.0534  87.5737 0006382 200.7807 212.5888  1.00272310 33865
AMOS-4                  
1 39237U 13045A   23120.58660439  .00000012  00000+0  00000+0 0  9997
2 39237   0.0381 102.2774 0003114 282.2110 109.9603  1.00272088 35493
AEHF-3 (USA 246)        
1 39256U 13050A   23120.51795789  .00000141  00000+0  00000+0 0  9997
2 39256   2.4548  73.8239 0051495 189.0175 346.8140  1.00267357 34203
ASTRA 2E                
1 39285U 13056A   23120.55447997  .00000155  00000+0  00000+0 0  9999
2 39285   0.0624 342.6256 0002481  63.0604  40.6503  1.00272519 34971
FM-6                    
1 39360U 13058A   23120.52571557 -.00000012  00000+0  00000+0 0  9995
2 39360   0.0249 283.8819 0000877 318.4471  48.9863  1.00270891 34594
RADUGA-1M 3             
1 39375U 13062A   23120.48415249  .00000162  00000+0  00000+0 0  9991
2 39375   3.0351  86.1687 0001772 213.6369 127.5936  1.00271850 34659
SES-8                   
1 39460U 13071A   23120.49609406 -.00000265  00000+0  00000+0 0  9992
2 39460   0.0113 224.0623 0002467 190.4041  77.3175  1.00271800 32965
INMARSAT 5-F1           
1 39476U 13073A   23120.50396441  .00000033  00000+0  00000+0 0  9997
2 39476   0.0129 241.8669 0000422 148.7202  71.6259  1.00269963 34127
TKSAT-1 (TUPAC KATARI)  
1 39481U 13075A   23120.53146844 -.00000189  00000+0  00000+0 0  9991
2 39481   0.0196 249.1504 0003057 128.8388 304.3633  1.00269129 34123
EXPRESS-AM5             
1 39487U 13077A   23120.61021709 -.00000275  00000+0  00000+0 0  9996
2 39487   0.0119 268.9050 0001217 112.0332 197.0760  1.00271821 34860
GSAT-14                 
1 39498U 14001A   23120.57966050 -.00000073  00000+0  00000+0 0  9994
2 39498   0.0205 250.7275 0003506  56.3484 193.8839  1.00272106 33921
THAICOM 6               
1 39500U 14002A   23120.57966050 -.00000116  00000+0  00000+0 0  9997
2 39500   0.0840 101.9333 0002244 345.2323  58.2429  1.00268975 33997
TDRS 12                 
1 39504U 14004A   23120.39733637 -.00000270  00000+0  00000+0 0  9997
2 39504   3.6439 353.6294 0004282 122.3870 204.2015  1.00274787 32802
ABS-2                   
1 39508U 14006A   23120.57966050 -.00000082  00000+0  00000+0 0  9991
2 39508   0.0497  81.5484 0003143 329.3141  91.0129  1.00272215 33829
ATHENA-FIDUS            
1 39509U 14006B   23120.48467549  .00000158  00000+0  00000+0 0  9994
2 39509   0.0406  74.2866 0001480 327.1486  29.0091  1.00271186 33604
